{
  "type": "FeatureCollection",
  "features": [
    {
      "type": "Feature",
      "properties": {
        "norad_id": 30652,
        "name": "FENGYUN 1C DEB",
        "group": "fengyun-1c-debris",
        "lat": 69.05343292150042,
        "lon": -11.820154095935475,
        "alt_km": 864.2337338463794,
        "timestamp": "2025-12-04T15:47:54.376016+00:00",
        "meta_object_name": "FENGYUN 1C DEB",
        "meta_object_id": "1999-025APJ",
        "meta_epoch": "2025-12-03T02:13:24.980736",
        "meta_mean_motion": 14.07800007,
        "meta_eccentricity": 0.00074197,
        "meta_inclination": 98.7864,
        "meta_ra_of_asc_node": 10.4874,
        "meta_arg_of_pericenter": 296.2066,
        "meta_mean_anomaly": 124.4148,
        "meta_ephemeris_type": 0,
        "meta_classification_type": "U",
        "meta_norad_cat_id": 30652,
        "meta_element_set_no": 999,
        "meta_rev_at_epoch": 96558,
        "meta_bstar": 0.0001425391,
        "meta_mean_motion_dot": 1.99e-06,
        "meta_mean_motion_ddot": 0,
        "tle_line1": "1 30652U 99025APJ 25337.09265024  .00000199  00000+0  14254-3 0  9996",
        "tle_line2": "2 30652  98.7864  10.4874 0007419 296.2066 124.4148 14.07800007965580"
      },
      "geometry": {
        "type": "Point",
        "coordinates": [
          -11.820154095935475,
          69.05343292150042
        ]
      }
    },
    {
      "type": "Feature",
      "properties": {
        "norad_id": 30654,
        "name": "FENGYUN 1C DEB",
        "group": "fengyun-1c-debris",
        "lat": 11.90652885330646,
        "lon": 83.5506168810686,
        "alt_km": 819.9458782327074,
        "timestamp": "2025-12-04T15:47:54.376027+00:00",
        "meta_object_name": "FENGYUN 1C DEB",
        "meta_object_id": "1999-025APL",
        "meta_epoch": "2025-12-04T06:32:20.410944",
        "meta_mean_motion": 14.1704213,
        "meta_eccentricity": 0.00346341,
        "meta_inclination": 99.2408,
        "meta_ra_of_asc_node": 261.1828,
        "meta_arg_of_pericenter": 120.5013,
        "meta_mean_anomaly": 239.9587,
        "meta_ephemeris_type": 0,
        "meta_classification_type": "U",
        "meta_norad_cat_id": 30654,
        "meta_element_set_no": 999,
        "meta_rev_at_epoch": 96560,
        "meta_bstar": 0.0022424713,
        "meta_mean_motion_dot": 4.492e-05,
        "meta_mean_motion_ddot": 0,
        "tle_line1": "1 30654U 99025APL 25338.27245846  .00004492  00000+0  22425-2 0  9997",
        "tle_line2": "2 30654  99.2408 261.1828 0034634 120.5013 239.9587 14.17042130965604"
      },
      "geometry": {
        "type": "Point",
        "coordinates": [
          83.5506168810686,
          11.90652885330646
        ]
      }
    },
    {
      "type": "Feature",
      "properties": {
        "norad_id": 30656,
        "name": "FENGYUN 1C DEB",
        "group": "fengyun-1c-debris",
        "lat": -39.25188829688622,
        "lon": -35.19958883470424,
        "alt_km": 755.0108409953955,
        "timestamp": "2025-12-04T15:47:54.376037+00:00",
        "meta_object_name": "FENGYUN 1C DEB",
        "meta_object_id": "1999-025APN",
        "meta_epoch": "2025-12-04T04:49:01.703424",
        "meta_mean_motion": 14.45071852,
        "meta_eccentricity": 0.00303801,
        "meta_inclination": 99.0178,
        "meta_ra_of_asc_node": 151.7706,
        "meta_arg_of_pericenter": 112.4563,
        "meta_mean_anomaly": 247.9848,
        "meta_ephemeris_type": 0,
        "meta_classification_type": "U",
        "meta_norad_cat_id": 30656,
        "meta_element_set_no": 999,
        "meta_rev_at_epoch": 96962,
        "meta_bstar": 0.0068722844,
        "meta_mean_motion_dot": 0.00024188,
        "meta_mean_motion_ddot": 0,
        "tle_line1": "1 30656U 99025APN 25338.20071416  .00024188  00000+0  68723-2 0  9997",
        "tle_line2": "2 30656  99.0178 151.7706 0030380 112.4563 247.9848 14.45071852969620"
      },
      "geometry": {
        "type": "Point",
        "coordinates": [
          -35.19958883470424,
          -39.25188829688622
        ]
      }
    },
    {
      "type": "Feature",
      "properties": {
        "norad_id": 30657,
        "name": "FENGYUN 1C DEB",
        "group": "fengyun-1c-debris",
        "lat": 9.09643435451639,
        "lon": -102.11964752428666,
        "alt_km": 775.9648381288962,
        "timestamp": "2025-12-04T15:47:54.376047+00:00",
        "meta_object_name": "FENGYUN 1C DEB",
        "meta_object_id": "1999-025APP",
        "meta_epoch": "2025-12-03T05:52:12.505152",
        "meta_mean_motion": 14.38387352,
        "meta_eccentricity": 0.0015794,
        "meta_inclination": 98.8369,
        "meta_ra_of_asc_node": 74.9988,
        "meta_arg_of_pericenter": 15.6712,
        "meta_mean_anomaly": 38.7512,
        "meta_ephemeris_type": 0,
        "meta_classification_type": "U",
        "meta_norad_cat_id": 30657,
        "meta_element_set_no": 999,
        "meta_rev_at_epoch": 97096,
        "meta_bstar": 0.0030345,
        "meta_mean_motion_dot": 9.229e-05,
        "meta_mean_motion_ddot": 0,
        "tle_line1": "1 30657U 99025APP 25337.24458918  .00009229  00000+0  30345-2 0  9995",
        "tle_line2": "2 30657  98.8369  74.9988 0015794  15.6712  38.7512 14.38387352970960"
      },
      "geometry": {
        "type": "Point",
        "coordinates": [
          -102.11964752428666,
          9.09643435451639
        ]
      }
    },
    {
      "type": "Feature",
      "properties": {
        "norad_id": 30658,
        "name": "FENGYUN 1C DEB",
        "group": "fengyun-1c-debris",
        "lat": 75.90390276091972,
        "lon": -131.8832249292189,
        "alt_km": 1044.946397192325,
        "timestamp": "2025-12-04T15:47:54.376057+00:00",
        "meta_object_name": "FENGYUN 1C DEB",
        "meta_object_id": "1999-025APQ",
        "meta_epoch": "2025-12-03T01:12:41.803776",
        "meta_mean_motion": 13.87127057,
        "meta_eccentricity": 0.01832033,
        "meta_inclination": 98.4391,
        "meta_ra_of_asc_node": 10.4218,
        "meta_arg_of_pericenter": 254.1059,
        "meta_mean_anomaly": 103.9843,
        "meta_ephemeris_type": 0,
        "meta_classification_type": "U",
        "meta_norad_cat_id": 30658,
        "meta_element_set_no": 999,
        "meta_rev_at_epoch": 94550,
        "meta_bstar": 0.0023182779,
        "meta_mean_motion_dot": 3.066e-05,
        "meta_mean_motion_ddot": 0,
        "tle_line1": "1 30658U 99025APQ 25337.05048384  .00003066  00000+0  23183-2 0  9992",
        "tle_line2": "2 30658  98.4391  10.4218 0183203 254.1059 103.9843 13.87127057945509"
      },
      "geometry": {
        "type": "Point",
        "coordinates": [
          -131.8832249292189,
          75.90390276091972
        ]
      }
    },
    {
      "type": "Feature",
      "properties": {
        "norad_id": 30660,
        "name": "FENGYUN 1C DEB",
        "group": "fengyun-1c-debris",
        "lat": 15.587395008542224,
        "lon": -102.79911802539337,
        "alt_km": 699.0755769151492,
        "timestamp": "2025-12-04T15:47:54.376068+00:00",
        "meta_object_name": "FENGYUN 1C DEB",
        "meta_object_id": "1999-025APS",
        "meta_epoch": "2025-12-04T05:30:37.285344",
        "meta_mean_motion": 14.87379466,
        "meta_eccentricity": 0.01380291,
        "meta_inclination": 98.143,
        "meta_ra_of_asc_node": 74.4719,
        "meta_arg_of_pericenter": 2.3032,
        "meta_mean_anomaly": 27.4199,
        "meta_ephemeris_type": 0,
        "meta_classification_type": "U",
        "meta_norad_cat_id": 30660,
        "meta_element_set_no": 999,
        "meta_rev_at_epoch": 658,
        "meta_bstar": 0.0013223446,
        "meta_mean_motion_dot": 0.00014202,
        "meta_mean_motion_ddot": 0,
        "tle_line1": "1 30660U 99025APS 25338.22959821  .00014202  00000+0  13223-2 0  9990",
        "tle_line2": "2 30660  98.1430  74.4719 0138029   2.3032  27.4199 14.87379466  6583"
      },
      "geometry": {
        "type": "Point",
        "coordinates": [
          -102.79911802539337,
          15.587395008542224
        ]
      }
    },
    {
      "type": "Feature",
      "properties": {
        "norad_id": 30661,
        "name": "FENGYUN 1C DEB",
        "group": "fengyun-1c-debris",
        "lat": -21.847371735082245,
        "lon": 157.58147852025098,
        "alt_km": 825.8833806695447,
        "timestamp": "2025-12-04T15:47:54.376095+00:00",
        "meta_object_name": "FENGYUN 1C DEB",
        "meta_object_id": "1999-025APT",
        "meta_epoch": "2025-12-04T05:45:49.116384",
        "meta_mean_motion": 14.21134717,
        "meta_eccentricity": 0.01449168,
        "meta_inclination": 99.487,
        "meta_ra_of_asc_node": 153.2885,
        "meta_arg_of_pericenter": 69.4681,
        "meta_mean_anomaly": 292.1977,
        "meta_ephemeris_type": 0,
        "meta_classification_type": "U",
        "meta_norad_cat_id": 30661,
        "meta_element_set_no": 999,
        "meta_rev_at_epoch": 97781,
        "meta_bstar": 0.00021665495,
        "meta_mean_motion_dot": 4.74e-06,
        "meta_mean_motion_ddot": 0,
        "tle_line1": "1 30661U 99025APT 25338.24015181  .00000474  00000+0  21665-3 0  9991",
        "tle_line2": "2 30661  99.4870 153.2885 0144916  69.4681 292.1977 14.21134717977816"
      },
      "geometry": {
        "type": "Point",
        "coordinates": [
          157.58147852025098,
          -21.847371735082245
        ]
      }
    }
  ]
}